[{"OBJECT_NAME":"GEOSCAN 3 (RS92S3)","OBJECT_ID":"2025-155T","EPOCH":"2026-03-09T22:52:10.587648","MEAN_MOTION":15.31696739,"ECCENTRICITY":0.00068078,"INCLINATION":97.4455,"RA_OF_ASC_NODE":37.9971,"ARG_OF_PERICENTER":154.1387,"MEAN_ANOMALY":206.0196,"EPHEMERIS_TYPE":0,"CLASSIFICATION_TYPE":"U","NORAD_CAT_ID":64893,"ELEMENT_SET_NO":999,"REV_AT_EPOCH":6564,"BSTAR":0.00078414081,"MEAN_MOTION_DOT":0.00023985,"MEAN_MOTION_DDOT":0},{"OBJECT_NAME":"STARLINK-35166","OBJECT_ID":"2025-198H","EPOCH":"2026-03-09T20:56:31.645536","MEAN_MOTION":15.30198684,"ECCENTRICITY":9.265e-5,"INCLINATION":53.158,"RA_OF_ASC_NODE":270.4627,"ARG_OF_PERICENTER":93.2822,"MEAN_ANOMALY":266.8285,"EPHEMERIS_TYPE":0,"CLASSIFICATION_TYPE":"U","NORAD_CAT_ID":65499,"ELEMENT_SET_NO":999,"REV_AT_EPOCH":2864,"BSTAR":0.0011663881,"MEAN_MOTION_DOT":0.00034344,"MEAN_MOTION_DDOT":0}]
